NORAD_CAT_ID,OBJECT_NAME,OBJECT_TYPE,EPOCH,MEAN_MOTION,ECCENTRICITY,INCLINATION,RA_OF_ASC_NODE,ARG_OF_PERICENTER,MEAN_ANOMALY,BSTAR,MEAN_MOTION_DOT,MEAN_MOTION_DDOT,TLE_LINE0,TLE_LINE1,TLE_LINE2,SEMIMAJOR_AXIS,PERIOD,APOGEE,PERIGEE,DECAYED
53292.0,STARLINK-4159,PAYLOAD,2023-04-20 22:03:49,15.0821014,0.0001259,53.2158,234.861,97.9401,262.1734,0.014502,0.00234225,0.0,0 STARLINK-4159,1 53292U 22086BC  23110.91932497  .00234225  00000-0  14502-1 0  9991,2 53292  53.2158 234.8610 0001259  97.9401 262.1734 15.08210140 42102,6919.806,95.477,542.542,540.8,0.0
53292.0,STARLINK-4159,PAYLOAD,2023-04-21 14:00:01,15.08837001,0.0001241,53.2149,231.8805,84.2183,284.5611,-0.0012525,-0.00020164,0.0,0 STARLINK-4159,1 53292U 22086BC  23111.58334491 -.00020164  00000-0 -12525-2 0  9996,2 53292  53.2149 231.8805 0001241  84.2183 284.5611 15.08837001  1302,6917.89,95.438,540.613,538.896,0.0
53292.0,STARLINK-4159,PAYLOAD,2023-04-21 22:00:00,15.0882401,0.0001184,53.2146,230.3839,75.4052,304.9477,0.00013546,1.868e-05,0.0,0 STARLINK-4159,1 53292U 22086BC  23111.91667824  .00001868  00000-0  13546-3 0  9995,2 53292  53.2146 230.3839 0001184  75.4052 304.9477 15.08824010 42097,6917.929,95.439,540.613,538.975,0.0
53292.0,STARLINK-4159,PAYLOAD,2023-04-22 00:00:02,15.08838002,0.0001176,53.2147,230.0093,79.8961,33.4162,-0.00018654,-3.255e-05,0.0,0 STARLINK-4159,1 53292U 22086BC  23112.00002315 -.00003255  00000-0 -18654-3 0  9993,2 53292  53.2147 230.0093 0001176  79.8961  33.4162 15.08838002  1305,6917.886,95.438,540.565,538.938,0.0
53292.0,STARLINK-4159,PAYLOAD,2023-04-22 14:00:01,15.08911924,0.0001293,53.2146,227.3915,82.6782,320.8821,-0.008402,-0.00131826,0.0,0 STARLINK-4159,1 53292U 22086BC  23112.58334491 -.00131826  00000-0 -84020-2 0  9994,2 53292  53.2146 227.3915 0001293  82.6782 320.8821 15.08911924 42191,6917.661,95.433,540.42,538.631,0.0
53292.0,STARLINK-4159,PAYLOAD,2023-04-23 00:00:00,15.08821522,0.0001282,53.2146,225.5201,90.2608,57.8188,0.00014898,2.083e-05,0.0,0 STARLINK-4159,1 53292U 22086BC  23113.00001157  .00002083  00000-0  14898-3 0  9999,2 53292  53.2146 225.5201 0001282  90.2608  57.8188 15.08821522  1304,6917.937,95.439,540.689,538.915,0.0
53292.0,STARLINK-4159,PAYLOAD,2023-04-23 14:00:01,15.08858452,0.0001379,53.2146,222.9024,89.3234,348.9987,-0.0034127,-0.00054219,0.0,0 STARLINK-4159,1 53292U 22086BC  23113.58334491 -.00054219  00000-0 -34127-2 0  9998,2 53292  53.2146 222.9024 0001379  89.3234 348.9987 15.08858452  1302,6917.824,95.436,540.643,538.735,0.0
53292.0,STARLINK-4159,PAYLOAD,2023-04-23 22:00:00,15.08835598,0.0001287,53.2146,221.4056,89.8953,0.0181,-0.00032625,-5.476e-05,0.0,0 STARLINK-4159,1 53292U 22086BC  23113.91667824 -.00005476  00000-0 -32625-3 0  9997,2 53292  53.2146 221.4056 0001287  89.8953   0.0181 15.08835598  1300,6917.894,95.438,540.649,538.869,0.0
53292.0,STARLINK-4159,PAYLOAD,2023-04-24 07:08:31,15.08913407,0.0001691,53.2145,219.6953,84.9387,275.1798,0.0037295,0.0005969,0.0,0 STARLINK-4159,1 53292U 22086BC  23114.29758586  .00059690  00000-0  37295-2 0  9997,2 53292  53.2145 219.6953 0001691  84.9387 275.1798 15.08913407 42456,6917.656,95.433,540.691,538.351,0.0
53292.0,STARLINK-4159,PAYLOAD,2023-04-25 10:10:04,15.08799365,0.0001374,53.2153,214.6395,34.3226,325.7855,-0.00021094,-3.64e-05,0.0,0 STARLINK-4159,1 53292U 22086BC  23115.42366790 -.00003640  00000-0 -21094-3 0  9992,2 53292  53.2153 214.6395 0001374  34.3226 325.7855 15.08799365 42786,6918.005,95.44,540.82,538.919,0.0
53292.0,STARLINK-4159,PAYLOAD,2023-04-26 11:36:16,15.08827025,0.0001239,53.2148,209.8805,79.3099,280.8032,0.0013281,0.00020904,0.0,0 STARLINK-4159,1 53292U 22086BC  23116.48352992  .00020904  00000-0  13281-2 0  9996,2 53292  53.2148 209.8805 0001239  79.3099 280.8032 15.08827025 42940,6917.92,95.438,540.642,538.928,0.0
53292.0,STARLINK-4159,PAYLOAD,2023-04-27 11:27:03,15.08875499,0.0001221,53.2145,205.4222,74.7509,285.3618,0.0015461,0.00024428,0.0,0 STARLINK-4159,1 53292U 22086BC  23117.47712128  .00024428  00000-0  15461-2 0  9994,2 53292  53.2145 205.4222 0001221  74.7509 285.3618 15.08875499 43093,6917.772,95.435,540.482,538.792,0.0
53292.0,STARLINK-4159,PAYLOAD,2023-04-28 11:17:50,15.08853969,0.0001211,53.2143,200.9616,119.1095,241.0018,0.0011066,0.00017374,0.0,0 STARLINK-4159,1 53292U 22086BC  23118.47071913  .00017374  00000-0  11066-2 0  9994,2 53292  53.2143 200.9616 0001211 119.1095 241.0018 15.08853969 43081,6917.838,95.437,540.54,538.865,0.0
53292.0,STARLINK-4159,PAYLOAD,2023-04-29 04:47:04,15.08840962,0.0001117,53.214,197.6915,89.8683,270.2437,0.00032972,4.964e-05,0.0,0 STARLINK-4159,1 53292U 22086BC  23119.19936199  .00004964  00000-0  32972-3 0  9991,2 53292  53.2140 197.6915 0001117  89.8683 270.2437 15.08840962 43193,6917.877,95.437,540.515,538.97,0.0
53292.0,STARLINK-4159,PAYLOAD,2023-04-29 12:44:00,15.08842451,0.0001197,53.2148,196.2041,94.1936,265.9193,0.00040525,6.168e-05,0.0,0 STARLINK-4159,1 53292U 22086BC  23119.53056275  .00006168  00000-0  40525-3 0  9998,2 53292  53.2148 196.2041 0001197  94.1936 265.9193 15.08842451 43403,6917.873,95.437,540.566,538.91,0.0
53292.0,STARLINK-4159,PAYLOAD,2023-04-30 04:37:51,15.0884234,0.000137,53.2149,193.2306,86.6141,273.5008,0.00018558,2.667e-05,0.0,0 STARLINK-4159,1 53292U 22086BC  23120.19296189  .00002667  00000-0  18558-3 0  9993,2 53292  53.2149 193.2306 0001370  86.6141 273.5008 15.08842340 43342,6917.873,95.437,540.686,538.79,0.0
53292.0,STARLINK-4159,PAYLOAD,2023-04-30 12:34:47,15.088438,0.0001386,53.2148,191.7432,85.926,274.189,0.00018111,2.596e-05,0.0,0 STARLINK-4159,1 53292U 22086BC  23120.52416137  .00002596  00000-0  18111-3 0  9993,2 53292  53.2148 191.7432 0001386  85.9260 274.1890 15.08843800 43556,6917.869,95.437,540.693,538.775,0.0
53292.0,STARLINK-4159,PAYLOAD,2023-05-01 10:50:11,15.08839946,0.000137,53.2145,187.5789,94.061,266.0538,2.4406e-05,1.01e-06,0.0,0 STARLINK-4159,1 53292U 22086BC  23121.45152306  .00000101  00000-0  24406-4 0  9996,2 53292  53.2145 187.5789 0001370  94.0610 266.0538 15.08839946 43537,6917.881,95.438,540.693,538.798,0.0
53292.0,STARLINK-4159,PAYLOAD,2023-05-02 12:16:20,15.08850171,0.0001264,53.2151,182.8205,97.4608,262.6528,0.00012099,1.639e-05,0.0,0 STARLINK-4159,1 53292U 22086BC  23122.51135375  .00001639  00000-0  12099-3 0  9992,2 53292  53.2151 182.8205 0001264  97.4608 262.6528 15.08850171 43692,6917.849,95.437,540.589,538.84,0.0
53292.0,STARLINK-4159,PAYLOAD,2023-05-03 04:10:13,15.08835349,0.0001366,53.2153,179.8486,96.3924,263.7224,7.2884e-05,8.72e-06,0.0,0 STARLINK-4159,1 53292U 22086BC  23123.17376443  .00000872  00000-0  72884-4 0  9995,2 53292  53.2153 179.8486 0001366  96.3924 263.7224 15.08835349 43799,6917.895,95.438,540.705,538.815,0.0
53292.0,STARLINK-4159,PAYLOAD,2023-05-03 12:07:09,15.08835361,0.0001245,53.2152,178.3619,93.0066,267.1068,1.8119e-05,0.0,0.0,0 STARLINK-4159,1 53292U 22086BC  23123.50496565  .00000000  00000-0  18119-4 0  9994,2 53292  53.2152 178.3619 0001245  93.0066 267.1068 15.08835361 44000,6917.895,95.438,540.621,538.898,0.0
53292.0,STARLINK-4159,PAYLOAD,2023-05-04 11:57:55,15.08849035,0.0001168,53.2151,173.9007,87.7871,272.3255,7.502e-05,9.07e-06,0.0,0 STARLINK-4159,1 53292U 22086BC  23124.49855527  .00000907  00000-0  75020-4 0  9990,2 53292  53.2151 173.9007 0001168  87.7871 272.3255 15.08849035 43995,6917.853,95.437,540.526,538.91,0.0
53292.0,STARLINK-4159,PAYLOAD,2023-05-04 19:54:50,15.08852538,0.0001197,53.2151,172.4143,86.1701,273.9428,5.7574e-05,6.29e-06,0.0,0 STARLINK-4159,1 53292U 22086BC  23124.82975185  .00000629  00000-0  57574-4 0  9995,2 53292  53.2151 172.4143 0001197  86.1701 273.9428 15.08852538 44203,6917.842,95.437,540.535,538.879,0.0
53292.0,STARLINK-4159,PAYLOAD,2023-05-05 07:02:32,15.08838389,0.0001213,53.2151,170.3325,91.235,268.8781,0.00021811,3.185e-05,0.0,0 STARLINK-4159,1 53292U 22086BC  23125.29343716  .00003185  00000-0  21811-3 0  9990,2 53292  53.2151 170.3325 0001213  91.2350 268.8781 15.08838389 44111,6917.885,95.438,540.589,538.911,0.0
53292.0,STARLINK-4159,PAYLOAD,2023-05-05 19:45:38,15.08836125,0.0001001,53.2151,167.9536,95.2103,264.9004,6.5012e-05,7.47e-06,0.0,0 STARLINK-4159,1 53292U 22086BC  23125.82336209  .00000747  00000-0  65012-4 0  9991,2 53292  53.2151 167.9536 0001001  95.2103 264.9004 15.08836125 44191,6917.892,95.438,540.45,539.065,0.0
53292.0,STARLINK-4159,PAYLOAD,2023-05-06 06:53:20,15.08834202,0.0001461,53.2152,165.8728,97.9048,262.211,1.0859e-05,-1.15e-06,0.0,0 STARLINK-4159,1 53292U 22086BC  23126.28704842 -.00000115  00000-0  10859-4 0  9993,2 53292  53.2152 165.8728 0001461  97.9048 262.2110 15.08834202 44428,6917.898,95.438,540.774,538.752,0.0
53292.0,STARLINK-4159,PAYLOAD,2023-05-07 01:57:57,15.08847106,0.0001115,53.2152,162.3026,91.4843,268.6277,0.00010285,1.35e-05,0.0,0 STARLINK-4159,1 53292U 22086BC  23127.08191739  .00001350  00000-0  10285-3 0  9990,2 53292  53.2152 162.3026 0001115  91.4843 268.6277 15.08847106 44385,6917.859,95.437,540.495,538.952,0.0
53292.0,STARLINK-4159,PAYLOAD,2023-05-07 09:54:53,15.0884748,0.0001234,53.2147,160.8164,103.3753,256.7377,0.00020224,2.933e-05,0.0,0 STARLINK-4159,1 53292U 22086BC  23127.41311706  .00002933  00000-0  20224-3 0  9997,2 53292  53.2147 160.8164 0001234 103.3753 256.7377 15.08847480 44597,6917.858,95.437,540.576,538.869,0.0
53292.0,STARLINK-4159,PAYLOAD,2023-05-07 19:27:12,15.08842186,9.94e-05,53.2134,159.0311,88.2074,271.9032,9.0342e-05,1.15e-05,0.0,0 STARLINK-4159,1 53292U 22086BC  23127.81055981  .00001150  00000-0  90342-4 0  9990,2 53292  53.2134 159.0311 0000994  88.2074 271.9032 15.08842186 44490,6917.874,95.437,540.426,539.051,0.0
53292.0,STARLINK-4159,PAYLOAD,2023-05-08 01:48:45,15.08832005,0.0001001,53.2145,157.8436,90.2566,269.8541,0.00017555,2.507e-05,0.0,0 STARLINK-4159,1 53292U 22086BC  23128.07552707  .00002507  00000-0  17555-3 0  9998,2 53292  53.2145 157.8436 0001001  90.2566 269.8541 15.08832005 44530,6917.905,95.438,540.462,539.077,0.0
